[{"OBJECT_NAME":"STARLINK-4254","OBJECT_ID":"2022-076N","EPOCH":"2026-03-09T08:25:10.453152","MEAN_MOTION":15.08838803,"ECCENTRICITY":0.00013083,"INCLINATION":53.2164,"RA_OF_ASC_NODE":95.5555,"ARG_OF_PERICENTER":95.1441,"MEAN_ANOMALY":264.9701,"EPHEMERIS_TYPE":0,"CLASSIFICATION_TYPE":"U","NORAD_CAT_ID":52998,"ELEMENT_SET_NO":999,"REV_AT_EPOCH":20279,"BSTAR":-2.7543188e-5,"MEAN_MOTION_DOT":-7.26e-6,"MEAN_MOTION_DDOT":0},{"OBJECT_NAME":"SITRO-AIS 28","OBJECT_ID":"2024-039U","EPOCH":"2026-03-09T22:53:08.846304","MEAN_MOTION":14.92876764,"ECCENTRICITY":0.01445021,"INCLINATION":95.3938,"RA_OF_ASC_NODE":167.1162,"ARG_OF_PERICENTER":314.581,"MEAN_ANOMALY":44.3693,"EPHEMERIS_TYPE":0,"CLASSIFICATION_TYPE":"U","NORAD_CAT_ID":59071,"ELEMENT_SET_NO":999,"REV_AT_EPOCH":10993,"BSTAR":0.0004111707,"MEAN_MOTION_DOT":5.19e-5,"MEAN_MOTION_DDOT":0}]
